[{"OBJECT_NAME":"ICEYE-X6","OBJECT_ID":"2020-068M","EPOCH":"2026-03-09T22:38:15.311328","MEAN_MOTION":15.03906063,"ECCENTRICITY":0.00090855,"INCLINATION":98.0946,"RA_OF_ASC_NODE":57.9399,"ARG_OF_PERICENTER":68.4739,"MEAN_ANOMALY":291.7454,"EPHEMERIS_TYPE":0,"CLASSIFICATION_TYPE":"U","NORAD_CAT_ID":46497,"ELEMENT_SET_NO":999,"REV_AT_EPOCH":29831,"BSTAR":0.00025875904,"MEAN_MOTION_DOT":3.502e-5,"MEAN_MOTION_DDOT":0},{"OBJECT_NAME":"STARLINK-4307","OBJECT_ID":"2022-077W","EPOCH":"2026-03-09T23:04:41.166048","MEAN_MOTION":15.05647746,"ECCENTRICITY":0.0001391,"INCLINATION":97.602,"RA_OF_ASC_NODE":251.4392,"ARG_OF_PERICENTER":92.2135,"MEAN_ANOMALY":267.9251,"EPHEMERIS_TYPE":0,"CLASSIFICATION_TYPE":"U","NORAD_CAT_ID":53063,"ELEMENT_SET_NO":999,"REV_AT_EPOCH":7260,"BSTAR":1.1770768e-5,"MEAN_MOTION_DOT":1.09e-6,"MEAN_MOTION_DDOT":0}]
